NORAD_CAT_ID,OBJECT_NAME,OBJECT_TYPE,EPOCH,MEAN_MOTION,ECCENTRICITY,INCLINATION,RA_OF_ASC_NODE,ARG_OF_PERICENTER,MEAN_ANOMALY,BSTAR,MEAN_MOTION_DOT,MEAN_MOTION_DDOT,TLE_LINE0,TLE_LINE1,TLE_LINE2,SEMIMAJOR_AXIS,PERIOD,APOGEE,PERIGEE,DECAYED
53965.0,STARLINK-4578,PAYLOAD,2024-01-11 14:05:29,15.08839383,0.0001202,53.2158,162.1748,88.2486,271.8644,7.6458e-05,9.29e-06,0.0,0 STARLINK-4578,1 53965U 22125B   24011.58714223  .00000929  00000-0  76458-4 0  9994,2 53965  53.2158 162.1748 0001202  88.2486 271.8644 15.08839383 70348,6917.882,95.438,540.579,538.916,0.0
53965.0,STARLINK-4578,PAYLOAD,2024-01-11 18:51:38,15.08845495,0.0001272,53.2154,161.2828,88.1435,271.9702,0.00013848,1.917e-05,0.0,0 STARLINK-4578,1 53965U 22125B   24011.78585690  .00001917  00000-0  13848-3 0  9991,2 53965  53.2154 161.2828 0001272  88.1435 271.9702 15.08845495 70441,6917.864,95.437,540.609,538.849,0.0
53965.0,STARLINK-4578,PAYLOAD,2024-01-11 20:27:00,15.08854585,0.0001647,53.2158,160.9852,98.2601,261.8578,5.8789e-06,-1.94e-06,0.0,0 STARLINK-4578,1 53965U 22125B   24011.85209392 -.00000194  00000-0  58789-5 0  9993,2 53965  53.2158 160.9852 0001647  98.2601 261.8578 15.08854585 70383,6917.836,95.437,540.84,538.561,0.0
53965.0,STARLINK-4578,PAYLOAD,2024-01-12 09:10:07,15.08834067,0.0001555,53.2158,158.6061,81.5023,278.6145,4.6342e-05,4.5e-06,0.0,0 STARLINK-4578,1 53965U 22125B   24012.38202995  .00000450  00000-0  46342-4 0  9999,2 53965  53.2158 158.6061 0001555  81.5023 278.6145 15.08834067 70536,6917.899,95.438,540.839,538.688,0.0
53965.0,STARLINK-4578,PAYLOAD,2024-01-12 13:56:16,15.08835449,0.0001313,53.216,157.7139,81.2811,278.833,5.7947e-05,6.34e-06,0.0,0 STARLINK-4578,1 53965U 22125B   24012.58074874  .00000634  00000-0  57947-4 0  9991,2 53965  53.2160 157.7139 0001313  81.2811 278.8330 15.08835449 70497,6917.894,95.438,540.668,538.851,0.0
53965.0,STARLINK-4578,PAYLOAD,2024-01-12 18:42:25,15.0884225,0.000134,53.2163,156.824,78.2557,281.8586,0.00014088,1.955e-05,0.0,0 STARLINK-4578,1 53965U 22125B   24012.77946374  .00001955  00000-0  14088-3 0  9990,2 53965  53.2163 156.8240 0001340  78.2557 281.8586 15.08842250 70592,6917.874,95.437,540.666,538.812,0.0
53965.0,STARLINK-4578,PAYLOAD,2024-01-13 09:00:54,15.0883682,0.0001767,53.2173,154.1477,110.143,249.9752,4.4262e-05,4.16e-06,0.0,0 STARLINK-4578,1 53965U 22125B   24013.37562747  .00000416  00000-0  44262-4 0  9994,2 53965  53.2173 154.1477 0001767 110.1430 249.9752 15.08836820 70681,6917.89,95.438,540.978,538.533,0.0
53965.0,STARLINK-4578,PAYLOAD,2024-01-13 13:47:03,15.08839316,0.0001617,53.2167,153.2556,105.2999,254.8171,7.154e-06,-1.74e-06,0.0,0 STARLINK-4578,1 53965U 22125B   24013.57434692 -.00000174  00000-0  71540-5 0  9995,2 53965  53.2167 153.2556 0001617 105.2999 254.8171 15.08839316 70640,6917.882,95.438,540.866,538.629,0.0
53965.0,STARLINK-4578,PAYLOAD,2024-01-14 13:37:50,15.08840901,0.0001695,53.2162,148.7954,100.1059,260.0124,0.00014253,1.981e-05,0.0,0 STARLINK-4578,1 53965U 22125B   24014.56794906  .00001981  00000-0  14253-3 0  9994,2 53965  53.2162 148.7954 0001695 100.1059 260.0124 15.08840901 70798,6917.878,95.437,540.915,538.57,0.0
53965.0,STARLINK-4578,PAYLOAD,2024-01-14 18:23:59,15.08848999,0.0001686,53.2164,147.9013,111.2453,248.872,0.00021574,3.148e-05,0.0,0 STARLINK-4578,1 53965U 22125B   24014.76666418  .00003148  00000-0  21574-3 0  9993,2 53965  53.2164 147.9013 0001686 111.2453 248.8720 15.08848999 70890,6917.853,95.437,540.884,538.552,0.0
53965.0,STARLINK-4578,PAYLOAD,2024-01-15 13:28:37,15.08846933,0.000187,53.2161,144.3335,116.933,243.1853,0.00014132,1.962e-05,0.0,0 STARLINK-4578,1 53965U 22125B   24015.56154422  .00001962  00000-0  14132-3 0  9993,2 53965  53.2161 144.3335 0001870 116.9330 243.1853 15.08846933 70943,6917.859,95.437,541.018,538.431,0.0
53965.0,STARLINK-4578,PAYLOAD,2024-01-15 15:04:00,15.08847924,0.0001665,53.2168,144.0382,96.7162,263.402,0.00017457,2.492e-05,0.0,0 STARLINK-4578,1 53965U 22125B   24015.62778511  .00002492  00000-0  17457-3 0  9993,2 53965  53.2168 144.0382 0001665  96.7162 263.4020 15.08847924 71021,6917.856,95.437,540.873,538.569,0.0
53965.0,STARLINK-4578,PAYLOAD,2024-01-16 11:44:01,15.08841007,0.0001521,53.2177,140.1709,95.9851,264.1314,-5.6614e-05,-1.189e-05,0.0,0 STARLINK-4578,1 53965U 22125B   24016.48890908 -.00001189  00000-0 -56614-4 0  9996,2 53965  53.2177 140.1709 0001521  95.9851 264.1314 15.08841007 71152,6917.877,95.437,540.795,538.69,0.0
53965.0,STARLINK-4578,PAYLOAD,2024-01-16 14:54:47,15.08841186,0.0001486,53.2169,139.5782,101.9576,258.1582,-7.5382e-05,-1.488e-05,0.0,0 STARLINK-4578,1 53965U 22125B   24016.62138822 -.00001488  00000-0 -75382-4 0  9997,2 53965  53.2169 139.5782 0001486 101.9576 258.1582 15.08841186 71101,6917.877,95.437,540.77,538.714,0.0
53965.0,STARLINK-4578,PAYLOAD,2024-01-16 16:30:10,15.08842429,0.0001464,53.216,139.2774,111.7176,248.3972,-1.2534e-05,-4.87e-06,0.0,0 STARLINK-4578,1 53965U 22125B   24016.68762693 -.00000487  00000-0 -12534-4 0  9990,2 53965  53.2160 139.2774 0001464 111.7176 248.3972 15.08842429 71117,6917.873,95.437,540.751,538.725,0.0
53965.0,STARLINK-4578,PAYLOAD,2024-01-17 14:45:35,15.08839963,0.0001364,53.2152,135.1155,81.5768,278.5378,2.4095e-05,9.6e-07,0.0,0 STARLINK-4578,1 53965U 22125B   24017.61499171  .00000096  00000-0  24095-4 0  9991,2 53965  53.2152 135.1155 0001364  81.5768 278.5378 15.08839963 71255,6917.881,95.438,540.689,538.802,0.0
53965.0,STARLINK-4578,PAYLOAD,2024-01-18 13:00:59,15.08840553,0.0001413,53.2151,130.9513,107.4956,252.619,0.00013977,1.937e-05,0.0,0 STARLINK-4578,1 53965U 22125B   24018.54235354  .00001937  00000-0  13977-3 0  9996,2 53965  53.2151 130.9513 0001413 107.4956 252.6190 15.08840553 71394,6917.879,95.438,540.721,538.766,0.0
53965.0,STARLINK-4578,PAYLOAD,2024-01-19 11:16:23,15.0884622,0.0001458,53.216,126.7931,106.6722,253.4431,6.5236e-05,7.51e-06,0.0,0 STARLINK-4578,1 53965U 22125B   24019.46971081  .00000751  00000-0  65236-4 0  9991,2 53965  53.2160 126.7931 0001458 106.6722 253.4431 15.08846220 71600,6917.861,95.437,540.735,538.718,0.0
53965.0,STARLINK-4578,PAYLOAD,2024-01-19 14:27:09,15.08849643,0.0001371,53.2153,126.1946,73.3818,286.7325,0.00014921,2.088e-05,0.0,0 STARLINK-4578,1 53965U 22125B   24019.60218926  .00002088  00000-0  14921-3 0  9998,2 53965  53.2153 126.1946 0001371  73.3818 286.7325 15.08849643 71559,6917.851,95.437,540.664,538.767,0.0
53965.0,STARLINK-4578,PAYLOAD,2024-01-20 11:07:10,15.08837933,0.0001525,53.2169,122.3309,76.6316,283.4846,-1.6401e-05,-5.49e-06,0.0,0 STARLINK-4578,1 53965U 22125B   24020.46331700 -.00000549  00000-0 -16401-4 0  9998,2 53965  53.2169 122.3309 0001525  76.6316 283.4846 15.08837933 71750,6917.887,95.438,540.807,538.697,0.0
53965.0,STARLINK-4578,PAYLOAD,2024-01-20 14:17:56,15.08840724,0.0001781,53.2176,121.7365,68.0547,292.0634,3.2364e-05,2.27e-06,0.0,0 STARLINK-4578,1 53965U 22125B   24020.59579676  .00000227  00000-0  32364-4 0  9995,2 53965  53.2176 121.7365 0001781  68.0547 292.0634 15.08840724 71706,6917.878,95.438,540.975,538.511,0.0
53965.0,STARLINK-4578,PAYLOAD,2024-01-20 15:53:19,15.08845099,0.0001541,53.2167,121.434,82.2613,277.8554,9.2651e-05,1.187e-05,0.0,0 STARLINK-4578,1 53965U 22125B   24020.66203285  .00001187  00000-0  92651-4 0  9994,2 53965  53.2167 121.4340 0001541  82.2613 277.8554 15.08845099 71715,6917.865,95.437,540.796,538.664,0.0
53965.0,STARLINK-4578,PAYLOAD,2024-01-21 06:11:48,15.0883829,0.0001559,53.2167,118.757,136.6381,223.4734,-8.1565e-05,-1.586e-05,0.0,0 STARLINK-4578,1 53965U 22125B   24021.25819637 -.00001586  00000-0 -81565-4 0  9991,2 53965  53.2167 118.7570 0001559 136.6381 223.4734 15.08838290 71806,6917.886,95.438,540.829,538.672,0.0
53965.0,STARLINK-4578,PAYLOAD,2024-01-21 12:33:20,15.0884444,0.0001511,53.2154,117.5748,105.6321,254.4838,4.199e-05,3.8e-06,0.0,0 STARLINK-4578,1 53965U 22125B   24021.52315428  .00000380  00000-0  41990-4 0  9997,2 53965  53.2154 117.5748 0001511 105.6321 254.4838 15.08844440 71919,6917.867,95.437,540.777,538.687,0.0
53965.0,STARLINK-4578,PAYLOAD,2024-01-22 06:02:35,15.0884304,0.0001767,53.2161,114.3049,77.7066,282.4124,7.9991e-05,9.85e-06,0.0,0 STARLINK-4578,1 53965U 22125B   24022.25179773  .00000985  00000-0  79991-4 0  9992,2 53965  53.2161 114.3049 0001767  77.7066 282.4124 15.08843040 71952,6917.871,95.437,540.958,538.514,0.0
53965.0,STARLINK-4578,PAYLOAD,2024-01-22 10:48:44,15.0884021,0.0001659,53.2161,113.4108,90.3752,269.743,3.4367e-05,2.59e-06,0.0,0 STARLINK-4578,1 53965U 22125B   24022.45051834  .00000259  00000-0  34367-4 0  9993,2 53965  53.2161 113.4108 0001659  90.3752 269.7430 15.08840210 72057,6917.88,95.438,540.892,538.597,0.0
53965.0,STARLINK-4578,PAYLOAD,2024-01-22 12:24:07,15.088419,0.0001552,53.2168,113.1141,85.3562,274.7607,4.055e-05,3.57e-06,0.0,0 STARLINK-4578,1 53965U 22125B   24022.51675875  .00000357  00000-0  40550-4 0  9997,2 53965  53.2168 113.1141 0001552  85.3562 274.7607 15.08841900 71994,6917.875,95.437,540.813,538.666,0.0
53965.0,STARLINK-4578,PAYLOAD,2024-01-23 12:14:54,15.0885183,0.0001651,53.2174,108.6517,92.5454,267.5727,9.4178e-05,1.212e-05,0.0,0 STARLINK-4578,1 53965U 22125B   24023.51035077  .00001212  00000-0  94178-4 0  9998,2 53965  53.2174 108.6517 0001651  92.5454 267.5727 15.08851830 72219,6917.844,95.437,540.851,538.567,0.0
53965.0,STARLINK-4578,PAYLOAD,2024-01-24 12:05:42,15.08834591,0.0001696,53.2173,104.1915,103.0378,257.0804,6.5941e-06,-1.83e-06,0.0,0 STARLINK-4578,1 53965U 22125B   24024.50396239 -.00000183  00000-0  65941-5 0  9992,2 53965  53.2173 104.1915 0001696 103.0378 257.0804 15.08834591 72364,6917.897,95.438,540.935,538.589,0.0
53965.0,STARLINK-4578,PAYLOAD,2024-01-25 10:21:06,15.08844083,0.0001484,53.2165,100.0288,92.24,267.8762,4.2279e-05,3.85e-06,0.0,0 STARLINK-4578,1 53965U 22125B   24025.43131950  .00000385  00000-0  42279-4 0  9993,2 53965  53.2165 100.0288 0001484  92.2400 267.8762 15.08844083 72508,6917.868,95.437,540.76,538.706,0.0
